*******************************************************************************
Ephemeris / WWW_USER Fri Mar  7 10:14:58 2025 Pasadena, USA      / Horizons    
*******************************************************************************
Target body name: (2018 PN20)                     {source: JPL#3}
Center body name: Earth (399)                     {source: DE441}
Center-site name: Mauna Kea
*******************************************************************************
Start time      : A.D. 2018-Oct-10 04:12:00.0000 UT      
Stop  time      : A.D. 2018-Oct-10 16:05:00.0000 UT      
Step-size       : 1 minutes
*******************************************************************************
Target pole/equ : undefined
Target radii    : undefined                                                    
Center geodetic : 204.5278, 19.8260847, 4.21024   {E-lon(deg),Lat(deg),Alt(km)}
Center cylindric: 204.5278, 6006.35451, 2151.0229 {E-lon(deg),Dxy(km),Dz(km)}
Center pole/equ : ITRF93                          {East-longitude positive}
Center radii    : 6378.137, 6378.137, 6356.752 km {Equator_a, b, pole_c}       
Target primary  : Sun
Vis. interferer : MOON (R_eq= 1737.400) km        {source: DE441}
Rel. light bend : Sun                             {source: DE441}
Rel. lght bnd GM: 1.3271E+11 km^3/s^2                                          
Small-body perts: Yes                             {source: SB441-N16}
Atmos refraction: NO (AIRLESS)
RA format       : HMS
Time format     : CAL 
Calendar mode   : Mixed Julian/Gregorian
RTS-only print  : NO       
EOP file        : eop.250306.p250602                                           
EOP coverage    : DATA-BASED 1962-JAN-20 TO 2025-MAR-06. PREDICTS-> 2025-JUN-01
Units conversion: 1 au= 149597870.700 km, c= 299792.458 km/s, 1 day= 86400.0 s 
Table cut-offs 1: Elevation (-90.0deg=NO ),Airmass (>38.000=NO), Daylight (YES)
Table cut-offs 2: Solar elongation (  0.0,180.0=NO ),Local Hour Angle( 0.0=NO )
Table cut-offs 3: RA/DEC angular rate (     0.0=NO )                           
*******************************************************************************
Initial IAU76/J2000 heliocentric ecliptic osculating elements (au, days, deg.):
  EPOCH=  2458343.5 ! 2018-Aug-13.00 (TDB)         Residual RMS= .1225         
   EC= .3775096637251725   QR= 1.051585063958075   TP= 2458346.3972912203      
   OM= 142.6884316149991   W=  180.4368328240348   IN= 18.91630320954361       
  Equivalent ICRF heliocentric cartesian coordinates (au, au/d):
   X= 8.077039416640637E-01  Y=-6.245728834467501E-01  Z=-2.534674905132982E-01
  VX= 1.177737749455786E-02 VY= 1.576958466977457E-02 VZ=-1.142216194306418E-04
Asteroid physical parameters (km, seconds, rotational period in hours):        
   GM= n.a.                RAD= n.a.               ROTPER= n.a.                
   H= 25.1                 G= .150                 B-V= n.a.                   
                           ALBEDO= n.a.            STYP= n.a.                  
*******************************************************************************
 Date__(UT)__HR:MN     R.A._________(ICRF)_________DEC
******************************************************
$$SOE
 2018-Oct-10 04:12 Cm  03 09 54.016153 -52 31 54.20165
 2018-Oct-10 04:13 Cm  03 09 53.980080 -52 31 53.76144
 2018-Oct-10 04:14 Cm  03 09 53.943963 -52 31 53.32139
 2018-Oct-10 04:15 Cm  03 09 53.907802 -52 31 52.88151
 2018-Oct-10 04:16 Cm  03 09 53.871596 -52 31 52.44180
 2018-Oct-10 04:17 Cm  03 09 53.835347 -52 31 52.00226
 2018-Oct-10 04:18 Cm  03 09 53.799054 -52 31 51.56289
 2018-Oct-10 04:19 Cm  03 09 53.762716 -52 31 51.12367
 2018-Oct-10 04:20 Cm  03 09 53.726334 -52 31 50.68462
 2018-Oct-10 04:21 Cm  03 09 53.689907 -52 31 50.24573
 2018-Oct-10 04:22 Cm  03 09 53.653435 -52 31 49.80701
 2018-Oct-10 04:23 Cm  03 09 53.616919 -52 31 49.36843
 2018-Oct-10 04:24 Cm  03 09 53.580358 -52 31 48.93002
 2018-Oct-10 04:25 Cm  03 09 53.543752 -52 31 48.49176
 2018-Oct-10 04:26 Nm  03 09 53.507101 -52 31 48.05366
 2018-Oct-10 04:27 Nm  03 09 53.470405 -52 31 47.61571
 2018-Oct-10 04:28 Nm  03 09 53.433664 -52 31 47.17791
 2018-Oct-10 04:29 Nm  03 09 53.396877 -52 31 46.74026
 2018-Oct-10 04:30 Nm  03 09 53.360045 -52 31 46.30276
 2018-Oct-10 04:31 Nm  03 09 53.323167 -52 31 45.86541
 2018-Oct-10 04:32 Nm  03 09 53.286243 -52 31 45.42820
 2018-Oct-10 04:33 Nm  03 09 53.249274 -52 31 44.99114
 2018-Oct-10 04:34 Nm  03 09 53.212259 -52 31 44.55422
 2018-Oct-10 04:35 Nm  03 09 53.175198 -52 31 44.11744
 2018-Oct-10 04:36 Nm  03 09 53.138091 -52 31 43.68080
 2018-Oct-10 04:37 Nm  03 09 53.100938 -52 31 43.24430
 2018-Oct-10 04:38 Nm  03 09 53.063739 -52 31 42.80794
 2018-Oct-10 04:39 Nm  03 09 53.026493 -52 31 42.37172
 2018-Oct-10 04:40 Nm  03 09 52.989201 -52 31 41.93562
 2018-Oct-10 04:41 Nm  03 09 52.951863 -52 31 41.49966
 2018-Oct-10 04:42 Nm  03 09 52.914477 -52 31 41.06384
 2018-Oct-10 04:43 Nm  03 09 52.877046 -52 31 40.62814
 2018-Oct-10 04:44 Nm  03 09 52.839567 -52 31 40.19257
 2018-Oct-10 04:45 Nm  03 09 52.802042 -52 31 39.75713
 2018-Oct-10 04:46 Nm  03 09 52.764470 -52 31 39.32181
 2018-Oct-10 04:47 Nm  03 09 52.726850 -52 31 38.88662
 2018-Oct-10 04:48 Nm  03 09 52.689184 -52 31 38.45155
 2018-Oct-10 04:49 Nm  03 09 52.651471 -52 31 38.01660
 2018-Oct-10 04:50 Nm  03 09 52.613710 -52 31 37.58177
 2018-Oct-10 04:51 Am  03 09 52.575902 -52 31 37.14706
 2018-Oct-10 04:52 Am  03 09 52.538046 -52 31 36.71247
 2018-Oct-10 04:53 Am  03 09 52.500143 -52 31 36.27799
 2018-Oct-10 04:54 Am  03 09 52.462193 -52 31 35.84362
 2018-Oct-10 04:55 Am  03 09 52.424195 -52 31 35.40937
 2018-Oct-10 04:56 Am  03 09 52.386149 -52 31 34.97523
 2018-Oct-10 04:57 Am  03 09 52.348055 -52 31 34.54120
 2018-Oct-10 04:58 Am  03 09 52.309914 -52 31 34.10728
 2018-Oct-10 04:59 Am  03 09 52.271724 -52 31 33.67346
 2018-Oct-10 05:00 Am  03 09 52.233487 -52 31 33.23975
 2018-Oct-10 05:01 Am  03 09 52.195201 -52 31 32.80614
 2018-Oct-10 05:02 Am  03 09 52.156868 -52 31 32.37263
 2018-Oct-10 05:03 Am  03 09 52.118486 -52 31 31.93922
 2018-Oct-10 05:04 Am  03 09 52.080055 -52 31 31.50591
 2018-Oct-10 05:05 Am  03 09 52.041577 -52 31 31.07270
 2018-Oct-10 05:06 A   03 09 52.003050 -52 31 30.63959
 2018-Oct-10 05:07 A   03 09 51.964475 -52 31 30.20657
 2018-Oct-10 05:08 A   03 09 51.925850 -52 31 29.77364
 2018-Oct-10 05:09 A   03 09 51.887178 -52 31 29.34081
 2018-Oct-10 05:10 A   03 09 51.848457 -52 31 28.90806
 2018-Oct-10 05:11 A   03 09 51.809686 -52 31 28.47540
 2018-Oct-10 05:12 A   03 09 51.770868 -52 31 28.04283
 2018-Oct-10 05:13 A   03 09 51.732000 -52 31 27.61035
 2018-Oct-10 05:14 A   03 09 51.693083 -52 31 27.17794
 2018-Oct-10 05:15 A   03 09 51.654118 -52 31 26.74562
 2018-Oct-10 05:16 A   03 09 51.615103 -52 31 26.31338
 2018-Oct-10 05:17     03 09 51.576039 -52 31 25.88122
 2018-Oct-10 05:18     03 09 51.536926 -52 31 25.44914
 2018-Oct-10 05:19     03 09 51.497764 -52 31 25.01714
 2018-Oct-10 05:20     03 09 51.458553 -52 31 24.58521
 2018-Oct-10 05:21     03 09 51.419292 -52 31 24.15335
 2018-Oct-10 05:22     03 09 51.379982 -52 31 23.72156
 2018-Oct-10 05:23     03 09 51.340623 -52 31 23.28984
 2018-Oct-10 05:24     03 09 51.301214 -52 31 22.85819
 2018-Oct-10 05:25     03 09 51.261755 -52 31 22.42661
 2018-Oct-10 05:26     03 09 51.222247 -52 31 21.99510
 2018-Oct-10 05:27     03 09 51.182690 -52 31 21.56364
 2018-Oct-10 05:28     03 09 51.143082 -52 31 21.13225
 2018-Oct-10 05:29     03 09 51.103425 -52 31 20.70092
 2018-Oct-10 05:30     03 09 51.063719 -52 31 20.26965
 2018-Oct-10 05:31     03 09 51.023962 -52 31 19.83844
 2018-Oct-10 05:32     03 09 50.984156 -52 31 19.40728
 2018-Oct-10 05:33     03 09 50.944299 -52 31 18.97618
 2018-Oct-10 05:34     03 09 50.904393 -52 31 18.54513
 2018-Oct-10 05:35     03 09 50.864437 -52 31 18.11413
 2018-Oct-10 05:36     03 09 50.824431 -52 31 17.68319
 2018-Oct-10 05:37     03 09 50.784375 -52 31 17.25229
 2018-Oct-10 05:38     03 09 50.744269 -52 31 16.82143
 2018-Oct-10 05:39     03 09 50.704112 -52 31 16.39062
 2018-Oct-10 05:40     03 09 50.663906 -52 31 15.95986
 2018-Oct-10 05:41     03 09 50.623649 -52 31 15.52914
 2018-Oct-10 05:42     03 09 50.583343 -52 31 15.09846
 2018-Oct-10 05:43     03 09 50.542986 -52 31 14.66781
 2018-Oct-10 05:44     03 09 50.502578 -52 31 14.23721
 2018-Oct-10 05:45     03 09 50.462121 -52 31 13.80664
 2018-Oct-10 05:46     03 09 50.421613 -52 31 13.37610
 2018-Oct-10 05:47     03 09 50.381054 -52 31 12.94560
 2018-Oct-10 05:48     03 09 50.340446 -52 31 12.51512
 2018-Oct-10 05:49     03 09 50.299786 -52 31 12.08468
 2018-Oct-10 05:50     03 09 50.259077 -52 31 11.65427
 2018-Oct-10 05:51     03 09 50.218317 -52 31 11.22388
 2018-Oct-10 05:52     03 09 50.177506 -52 31 10.79351
 2018-Oct-10 05:53     03 09 50.136645 -52 31 10.36317
 2018-Oct-10 05:54     03 09 50.095734 -52 31 09.93285
 2018-Oct-10 05:55     03 09 50.054772 -52 31 09.50255
 2018-Oct-10 05:56     03 09 50.013759 -52 31 09.07227
 2018-Oct-10 05:57     03 09 49.972696 -52 31 08.64201
 2018-Oct-10 05:58     03 09 49.931582 -52 31 08.21176
 2018-Oct-10 05:59     03 09 49.890417 -52 31 07.78153
 2018-Oct-10 06:00     03 09 49.849202 -52 31 07.35130
 2018-Oct-10 06:01     03 09 49.807937 -52 31 06.92109
 2018-Oct-10 06:02     03 09 49.766620 -52 31 06.49089
 2018-Oct-10 06:03     03 09 49.725253 -52 31 06.06069
 2018-Oct-10 06:04     03 09 49.683835 -52 31 05.63050
 2018-Oct-10 06:05     03 09 49.642367 -52 31 05.20032
 2018-Oct-10 06:06     03 09 49.600847 -52 31 04.77013
 2018-Oct-10 06:07     03 09 49.559277 -52 31 04.33995
 2018-Oct-10 06:08     03 09 49.517657 -52 31 03.90977
 2018-Oct-10 06:09     03 09 49.475985 -52 31 03.47958
 2018-Oct-10 06:10     03 09 49.434263 -52 31 03.04939
 2018-Oct-10 06:11     03 09 49.392490 -52 31 02.61920
 2018-Oct-10 06:12     03 09 49.350666 -52 31 02.18900
 2018-Oct-10 06:13     03 09 49.308792 -52 31 01.75879
 2018-Oct-10 06:14     03 09 49.266866 -52 31 01.32857
